NORAD_CAT_ID,OBJECT_NAME,OBJECT_TYPE,EPOCH,MEAN_MOTION,ECCENTRICITY,INCLINATION,RA_OF_ASC_NODE,ARG_OF_PERICENTER,MEAN_ANOMALY,BSTAR,MEAN_MOTION_DOT,MEAN_MOTION_DDOT,TLE_LINE0,TLE_LINE1,TLE_LINE2,SEMIMAJOR_AXIS,PERIOD,APOGEE,PERIGEE,DECAYED
53259.0,STARLINK-4140,PAYLOAD,2022-09-10 14:00:01,15.50415576,0.0001004999999999,53.2174,166.3824,101.5937,307.601,-0.011048,-0.00593207,0.0,0 STARLINK-4140,1 53259U 22086T   22253.58334491 -.00593207  00000-0 -11048-1 0  9996,2 53259  53.2174 166.3824 0001005 101.5937 307.6010 15.50415576  1300,6793.649,92.878,416.197,414.831,0.0
53259.0,STARLINK-4140,PAYLOAD,2022-09-10 20:00:01,15.49975842,0.0001164,53.2175,165.1874,99.3068,265.9231,-0.0025555,-0.00143325,0.0,0 STARLINK-4140,1 53259U 22086T   22253.83334491 -.00143325  00000-0 -25555-2 0  9995,2 53259  53.2175 165.1874 0001164  99.3068 265.9231 15.49975842  8222,6794.934,92.905,417.59,416.008,0.0
53259.0,STARLINK-4140,PAYLOAD,2022-09-10 22:00:00,15.49887428,0.0001139,53.2175,164.7897,89.8437,20.6579,-8.656700000000001e-05,-5.361e-05,0.0,0 STARLINK-4140,1 53259U 22086T   22253.91667824 -.00005361  00000-0 -86567-4 0  9992,2 53259  53.2175 164.7897 0001139  89.8437  20.6579 15.49887428  1303,6795.191999999999,92.91,417.831,416.283,0.0
53259.0,STARLINK-4140,PAYLOAD,2022-09-11 06:00:00,15.4993685,0.0001273,53.2177,163.1919,78.3524,93.0869,-0.00030481,-0.00017744,0.0,0 STARLINK-4140,1 53259U 22086T   22254.25001157 -.00017744  00000-0 -30481-3 0  9992,2 53259  53.2177 163.1919 0001273  78.3524  93.0869 15.49936850  8286,6795.0480000000025,92.907,417.778,416.048,0.0
53259.0,STARLINK-4140,PAYLOAD,2022-09-11 14:00:01,15.49872048,0.0001357,53.2178,161.5969,88.0921,144.3313,0.00062817,0.00035345,0.0,0 STARLINK-4140,1 53259U 22086T   22254.58334491  .00035345  00000-0  62817-3 0  9991,2 53259  53.2178 161.5969 0001357  88.0921 144.3313 15.49872048  1304,6795.236999999999,92.911,418.024,416.18,0.0
53259.0,STARLINK-4140,PAYLOAD,2022-09-11 22:00:00,15.49909915,0.0001455,53.2177,160.005,85.7323,207.6003,-0.00022904,-0.0001344,0.0,0 STARLINK-4140,1 53259U 22086T   22254.91667824 -.00013440  00000-0 -22904-3 0  9994,2 53259  53.2177 160.0050 0001455  85.7323 207.6003 15.49909915  1300,6795.126,92.909,417.98,416.003,0.0
53259.0,STARLINK-4140,PAYLOAD,2022-09-12 06:00:00,15.49917646,0.0001296,53.2171,158.4127,76.8309,277.4295,-0.0011559,-0.00065583,0.0,0 STARLINK-4140,1 53259U 22086T   22255.25001157 -.00065583  00000-0 -11559-2 0  9991,2 53259  53.2171 158.4127 0001296  76.8309 277.4295 15.49917646  8448,6795.104,92.908,417.849,416.088,0.0
53259.0,STARLINK-4140,PAYLOAD,2022-09-12 14:00:01,15.49834533,0.0001147999999999,53.217,156.8178,90.7956,324.3996,0.0010787,0.0006114,0.0,0 STARLINK-4140,1 53259U 22086T   22255.58334491  .00061140  00000-0  10787-2 0  9992,2 53259  53.2170 156.8178 0001148  90.7956 324.3996 15.49834533  1305,6795.347,92.913,417.992,416.432,0.0
53259.0,STARLINK-4140,PAYLOAD,2022-09-12 22:00:00,15.49890126,0.0001186,53.2168,155.2263,85.9245,30.1499,-0.00022205,-0.00013035,0.0,0 STARLINK-4140,1 53259U 22086T   22255.91667824 -.00013035  00000-0 -22205-3 0  9999,2 53259  53.2168 155.2263 0001186  85.9245  30.1499 15.49890126  8542,6795.184,92.91,417.855,416.24300000000005,0.0
53259.0,STARLINK-4140,PAYLOAD,2022-09-13 14:00:01,15.49881514,0.0001129,53.2165,152.0398,98.8843,139.0355,0.0011413,0.00064854,0.0,0 STARLINK-4140,1 53259U 22086T   22256.58334491  .00064854  00000-0  11413-2 0  9995,2 53259  53.2165 152.0398 0001129  98.8843 139.0355 15.49881514  1305,6795.209,92.91,417.842,416.307,0.0
53259.0,STARLINK-4140,PAYLOAD,2022-09-13 16:00:00,15.499654800000002,0.0001059,53.2168,151.6417,99.6876,243.4459,-0.0023513,-0.00132047,0.0,0 STARLINK-4140,1 53259U 22086T   22256.66667824 -.00132047  00000-0 -23513-2 0  9999,2 53259  53.2168 151.6417 0001059  99.6876 243.4459 15.49965480  8668,6794.964,92.905,417.549,416.109,0.0
53259.0,STARLINK-4140,PAYLOAD,2022-09-13 20:00:01,15.5012592,0.0001291,53.217,150.8471,96.6776,96.9003,-0.01394,-0.0073764,0.0,0 STARLINK-4140,1 53259U 22086T   22256.83334491 -.00737640  00000-0 -13940-1 0  9991,2 53259  53.2170 150.8471 0001291  96.6776  96.9003 15.50125920  8683,6794.495,92.896,417.237,415.483,0.0
53259.0,STARLINK-4140,PAYLOAD,2022-09-13 22:00:00,15.499668,0.0001264999999999,53.217,150.4501,92.8648,205.9926,-0.0120629999999999,-0.00634125,0.0,0 STARLINK-4140,1 53259U 22086T   22256.91667824 -.00634125  00000-0 -12063-1 0  9998,2 53259  53.2170 150.4501 0001265  92.8648 205.9926 15.49966800  1306,6794.96,92.905,417.685,415.966,0.0
53259.0,STARLINK-4140,PAYLOAD,2022-09-14 06:00:00,15.49518796,9.65e-05,53.2169,148.8595,84.5953,275.0502,-0.015096,-0.00778225,0.0,0 STARLINK-4140,1 53259U 22086T   22257.25001157 -.00778225  00000-0 -15096-1 0  9996,2 53259  53.2169 148.8595 0000965  84.5953 275.0502 15.49518796  8752,6796.27,92.932,418.791,417.479,0.0
53259.0,STARLINK-4140,PAYLOAD,2022-09-14 14:00:01,15.48957665,0.0001069,53.2173,147.2674,82.6107,337.1837,-0.021202,-0.01057351,0.0,0 STARLINK-4140,1 53259U 22086T   22257.58334491 -.01057351  00000-0 -21202-1 0  9999,2 53259  53.2173 147.2674 0001069  82.6107 337.1837 15.48957665  1300,6797.911,92.966,420.503,419.049,0.0
53259.0,STARLINK-4140,PAYLOAD,2022-09-14 22:00:00,15.48189829,0.0001193,53.2175,145.6785,97.7229,21.4154,-0.021656,-0.01051716,0.0,0 STARLINK-4140,1 53259U 22086T   22257.91667824 -.01051716  00000-0 -21656-1 0  9997,2 53259  53.2175 145.6785 0001193  97.7229  21.4154 15.48189829  1301,6800.158,93.012,422.835,421.212,0.0
53259.0,STARLINK-4140,PAYLOAD,2022-09-15 14:00:01,15.46730659,0.0001273,53.2172,142.5038,81.0257,154.0108,-0.02447,-0.01138254,0.0,0 STARLINK-4140,1 53259U 22086T   22258.58334491 -.01138254  00000-0 -24470-1 0  9992,2 53259  53.2172 142.5038 0001273  81.0257 154.0108 15.46730659  1304,6804.435,93.1,427.166,425.4330000000001,0.0
53259.0,STARLINK-4140,PAYLOAD,2022-09-15 22:00:00,15.45919203,0.0001214,53.2175,140.9228,78.2733,213.3872,-0.023524,-0.01055057,0.0,0 STARLINK-4140,1 53259U 22086T   22258.91667824 -.01055057  00000-0 -23524-1 0  9996,2 53259  53.2175 140.9228 0001214  78.2733 213.3872 15.45919203  1302,6806.816,93.148,429.507,427.854,0.0
53259.0,STARLINK-4140,PAYLOAD,2022-09-16 00:00:00,15.45737169,0.0001097999999999,53.2177,140.5264,89.4894,306.1748,-0.023951,-0.01066287,0.0,0 STARLINK-4140,1 53259U 22086T   22259.00001157 -.01066287  00000-0 -23951-1 0  9999,2 53259  53.2177 140.5264 0001098  89.4894 306.1748 15.45737169  9021,6807.35,93.159,429.962,428.467,0.0
53259.0,STARLINK-4140,PAYLOAD,2022-09-16 14:00:01,15.44399481,0.0001079,53.2174,137.7586,86.0049,316.1149,-0.024772,-0.01054406,0.0,0 STARLINK-4140,1 53259U 22086T   22259.58334491 -.01054406  00000-0 -24772-1 0  9994,2 53259  53.2174 137.7586 0001079  86.0049 316.1149 15.44399481  1306,6811.28,93.24,433.88,432.41,0.0
53259.0,STARLINK-4140,PAYLOAD,2022-09-16 22:00:00,15.43642386,0.0001361999999999,53.2174,136.1822,58.1496,37.8279,-0.025499,-0.0105741,0.0,0 STARLINK-4140,1 53259U 22086T   22259.91667824 -.01057410  00000-0 -25499-1 0  9995,2 53259  53.2174 136.1822 0001362  58.1496  37.8279 15.43642386  9160,6813.507,93.286,436.3,434.444,0.0
53259.0,STARLINK-4140,PAYLOAD,2022-09-17 14:00:01,15.42123192,0.0001314,53.2173,133.0289,92.8115,108.1489,-0.026844,-0.01072163,0.0,0 STARLINK-4140,1 53259U 22086T   22260.58334491 -.01072163  00000-0 -26844-1 0  9998,2 53259  53.2173 133.0289 0001314  92.8115 108.1489 15.42123192  1303,6817.981,93.378,440.742,438.95,0.0
53259.0,STARLINK-4140,PAYLOAD,2022-09-17 22:00:00,15.41361964,0.0001299,53.2173,131.4578,90.7998,161.2819,-0.027447,-0.01068851,0.0,0 STARLINK-4140,1 53259U 22086T   22260.91667824 -.01068851  00000-0 -27447-1 0  9993,2 53259  53.2173 131.4578 0001299  90.7998 161.2819 15.41361964  1301,6820.226,93.424,442.977,441.205,0.0
53259.0,STARLINK-4140,PAYLOAD,2022-09-18 14:00:01,15.3984161,0.0001112,53.2173,128.3153,91.2017,260.4514,-0.028806,-0.01066498,0.0,0 STARLINK-4140,1 53259U 22086T   22261.58335648 -.01066498  00000-0 -28806-1 0  9998,2 53259  53.2173 128.3153 0001112  91.2017 260.4514 15.39841610  1309,6824.714,93.516,447.338,445.82,0.0
53259.0,STARLINK-4140,PAYLOAD,2022-09-18 22:00:00,15.39086053,0.0001189,53.2173,126.7498,71.3974,328.5727,-0.029717,-0.01072558,0.0,0 STARLINK-4140,1 53259U 22086T   22261.91667824 -.01072558  00000-0 -29717-1 0  9995,2 53259  53.2173 126.7498 0001189  71.3974 328.5727 15.39086053  1302,6826.948,93.562,449.624,448.001,0.0
53259.0,STARLINK-4140,PAYLOAD,2022-09-19 14:00:01,15.37565264,0.0001286,53.2174,123.6181,85.0809,48.9207,-0.031131,-0.01069189,0.0,0 STARLINK-4140,1 53259U 22086T   22262.58334491 -.01069189  00000-0 -31131-1 0  9999,2 53259  53.2174 123.6181 0001286  85.0809  48.9207 15.37565264  1305,6831.449000000001,93.655,454.192,452.435,0.0
53259.0,STARLINK-4140,PAYLOAD,2022-09-19 22:00:00,15.36805118,0.0001473,53.2173,122.0579,63.7685,115.8781,-0.031875,-0.01068099,0.0,0 STARLINK-4140,1 53259U 22086T   22262.91667824 -.01068099  00000-0 -31875-1 0  9999,2 53259  53.2173 122.0579 0001473  63.7685 115.8781 15.36805118  9629,6833.701,93.701,456.573,454.559,0.0
53259.0,STARLINK-4140,PAYLOAD,2022-09-20 14:00:01,15.35285383,0.0001286,53.2174,118.937,93.9861,174.2156,-0.033417,-0.01066189,0.0,0 STARLINK-4140,1 53259U 22086T   22263.58334491 -.01066189  00000-0 -33417-1 0  9996,2 53259  53.2174 118.9370 0001286  93.9861 174.2156 15.35285383  1303,6838.21,93.794,460.954,459.196,0.0
53259.0,STARLINK-4140,PAYLOAD,2022-09-20 22:00:01,15.34527063,0.0001234,53.2174,117.3824,78.5414,232.6305,-0.034323,-0.0106854,0.0,0 STARLINK-4140,1 53259U 22086T   22263.91668981 -.01068540  00000-0 -34323-1 0  9997,2 53259  53.2174 117.3824 0001234  78.5414 232.6305 15.34527063  1304,6840.4630000000025,93.84,463.172,461.483,0.0
